#dP2024  4  1 18  0  0.00000000      96 __u+U IGS20 EXT  IAC
## 2308 151200.00000000   900.00000000 60401 0.7500000000000
+  119   C06C07C08C09C10C11C12C13C14C16C19C20C21C22C23C24C25
+        C26C27C28C29C30C32C33C34C35C36C37C38C39C40C41C42C43
+        C44C45C46E02E03E04E05E07E08E09E10E11E12E13E14E15E18
+        E19E21E24E25E26E27E30E31E33E34E36G01G02G03G04G05G06
+        G07G08G09G10G11G12G13G14G15G16G17G18G19G20G21G22G23
+        G24G25G26G27G28G29G30G31G32J02J03R01R02R03R04R05R07
+        R08R09R11R12R13R14R15R16R17R18R19R20R21R22R24R25R26
++        10  9  9 10  7  8  9  9  7 10  9  8 10  7  8  8  8
++         9  7  7  9  8  8  8  7  9  9 10 10 11  9  8  9  8
++        10  9  9  7  9  7  9  8  7  8  8  8  7  7  7  8  8
++         8  8  7  8  9  8  8  8  8  9  8  7  8  7  7  7  7
++         9  8  7  8  9  7  7  8  8  8  7  8  6  7  8  8  9
++         8  8  7  8  7  7  8  8  8  8  9  7  8  9  7  8  7
++         7 10  9  9  7  9  8  8  7  8  9  7  7  8  8  8  8
%c M  cc GPS ccc cccc cccc cccc cccc ccccc ccccc ccccc ccccc
%c cc cc ccc ccc cccc cccc cccc cccc ccccc ccccc ccccc ccccc
%f  0.0000000  0.000000000  0.00000000000  0.000000000000000
%f  0.0000000  0.000000000  0.00000000000  0.000000000000000
%i    0    0    0    0      0      0      0      0         0
%i    0    0    0    0      0      0      0      0         0
/* IAC                                ULTRA-RAPID PREDICTION
/* S/V CLOCKS ARE ALIGNED TO GNSS TIME                      
/* G:C1WC2W R:C1PC2P E:C1XC5X C:C2IC6I J:C1CC2S             
/* PCV:IGS20_2290 OL/AL:FES2004  NONE     YN ORB:CoN CLK:CoN
*  2024 04 02 10 15  0.00000000
PC06  -9468.188023  23462.204436 -33713.640714    316.361571
PC07 -15032.937341  38984.681584   4793.645478   -858.320272
PC08    427.992914  32826.411544  26575.324786     10.313140
PC09  -2768.565755  24052.915332 -34048.621472   -705.609788
PC10  -7999.697798  39405.848949  12037.296498     18.817353
PC11 -17487.784021  14902.467596  15899.367998    491.277776
PC12 -27284.209701   5677.560650  -1470.764959   -224.609216
PC13   6144.779043  36577.109513  20467.040134    428.784821
PC14 -11581.099644  24255.661998   7397.087924    547.999312
PC16 -15398.750966  21439.751441 -32665.217701   -433.285953
PC19   5883.528532 -27231.819433   1909.452868   -916.045924
PC20  14875.677009 -18960.233302 -14087.122379   -318.622528
PC21 -15656.178185  -1767.131567  23050.738620   -961.999294
PC22  -6981.527664 -20387.319656  17751.362420    -53.053206
PC23  16209.391013  21969.242958  -5784.535460   -775.509240
PC24 -16112.358472   6304.431125 -21908.212436    946.372966
PC25    879.491465  20058.015415 -19401.882361    364.674610
PC26 -23129.500053 -10213.134016 -11792.669746   -271.451471
PC27  26107.223094    267.784520   9813.333289    293.305218
PC28  14779.875722  11223.506047  20841.884101    224.039402
PC29   7696.245900 -17381.184973 -20436.693696    262.770156
PC30  24262.159129 -12150.051450  -6473.383412    -48.496406
PC32  15655.714285   1679.792126 -23020.483888   -594.103572
PC33  -5789.904488  27228.165415  -1762.970806   -965.665361
PC34 -23449.789186  12927.204083   7887.370478    403.429423
PC35 -15047.562561 -10847.095585 -20876.530238    396.702421
PC36   -129.931431 -19931.290781  19545.711457     38.450423
PC37  22923.097834  11040.904057  11495.806272   -952.270180
PC38  -6197.321337  28702.846918  30358.170672    146.519066
PC39 -20568.757678  20768.833904 -30404.946265     -7.802568
PC40 -22146.660372  35579.113204   2953.034944    -63.570772
PC41   6529.926039  20981.352262 -17130.992007   -916.869878
PC42 -15383.702630  17470.388362  15412.465648   -444.330269
PC43  -8743.085783  17470.303121  19922.618516     66.472041
PC44 -26086.960933    539.251818  -9961.764465    431.605956
PC45 -16185.359478 -21973.799829   5764.775644    -78.464411
PC46  15504.692223  -6872.418897  22158.058984   -136.632763
PE02  -3597.584243 -29215.191466   3021.016994    116.171817
PE03   4057.120328 -21854.038809  19557.889329   -104.461071
PE04  14740.751271   9286.179547 -23916.897124   -364.003294
PE05  20112.160924 -21381.545143   3835.253539   4734.772820
PE07 -24474.779496   8053.352144  14572.071536   -112.301196
PE08 -14015.150618  -9857.275120  24142.022873   -248.573260
PE09  24403.458096  -8060.782933 -14690.998335   -392.495671
PE10  28105.790958   9278.790754   -170.775926   -614.006071
PE11  27607.926691   2216.834359 -10423.894964   3097.438406
PE12  24302.084477  14306.240919   8947.596306   -975.836877
PE13 -27796.603952  -2689.300659   9839.484279    -20.814676
PE14  23726.305826  -2895.082849  15276.565107     83.754986
PE15 -24016.077680 -14490.387621  -9477.698473    -94.735940
PE18 -17126.222278  -9021.303577 -20960.039568    504.812940
PE19  -6279.544068  22356.932585 -18340.993642   -318.733282
PE21  -9081.832831  20964.841298 -18827.775380   -587.124742
PE24  17120.910807    353.150624  24124.428658   -684.976342
PE25   9317.638983 -20629.422305  19068.227385      2.857923
PE26 -14742.533071  10977.178028  23206.822062    414.088492
PE27 -17026.059824    119.286354 -24216.939593   -314.121822
PE30 -14757.345901 -20724.800232 -15133.935329   -157.142075
PE31  14842.517528  20565.147198  15265.754993    -19.787941
PE33   5611.457569  17560.122619  23158.855033      9.864207
PE34  -6239.098638 -17619.249107 -22957.671507   -103.390236
PE36  15260.746658 -10491.677816 -23085.545750   -207.716394
PG01 -23633.516089 -11498.745651  -5294.456630    177.419458
PG02 -17829.263036 -13680.755564 -13883.596188   -460.220698
PG03 -12168.059795 -20948.870051  10884.795046    287.749986
PG04 -10373.447953 -11049.181242  21832.151818    329.342368
PG05   5632.207331  25791.753606   2239.527182   -167.648846
PG06 -16877.496774   7729.280142  19103.880872    340.772871
PG07 -25958.838365  -5555.601358  -3281.274058    -98.174521
PG08  -2440.827818 -17431.361304 -19865.894505     96.407236
PG09 -19624.200199   1689.032168  17765.550580    145.941635
PG10  11998.534937 -10374.753207 -21033.517215     -4.664022
PG11  -4154.780055  14544.714529  21856.128110   -624.882805
PG12  10353.255673  22365.930871   9692.008870   -492.853948
PG13  -7890.182948  19275.456201 -16549.352122    639.340333
PG14 -14455.127558   6198.704465 -21359.056503    366.069259
PG15   4747.546200  17539.412965 -19802.436037    144.102049
PG16    726.585805 -25517.223168   6085.568645   -326.667208
PG17 -22485.158478  12113.345132  -7156.520514    711.212573
PG18  25722.330076   4789.888573  -5108.413224   -587.148853
PG19 -20511.958309  16483.013897   1291.213191    462.504934
PG20  -1043.332047  22753.988953  13851.234199    381.679337
PG21 -13529.320441 -15108.717925 -17193.332628    128.905387
PG22 -11056.619225  15017.216349 -18601.445469      6.616503
PG23  15619.063008   3255.833652 -21245.454666    191.258077
PG24  15623.861705  15193.802303 -15869.124600   -454.410823
PG25  15489.194748  13732.927751  16446.612085    492.824484
PG26   6927.905405 -19218.555608  16626.540609    171.980244
PG27   9171.839564 -21149.088095 -13085.604227    -16.048170
PG28  18961.813299  -7218.877535  17121.041631   -187.425108
PG29  18477.736456   1837.901171  18977.344097   -603.116256
PG30 -22842.304733   3157.054392 -13273.918945   -411.126182
PG31   9890.277007 -12465.372792  21108.312324   -228.029072
PG32  21063.444095 -15114.574105  -5040.748191   -617.435875
PJ02 -20994.647142  28685.680329 -18102.448384     -3.583421
PJ03 -29879.391950  23278.719765  23615.828571     -0.124485
PR01  14320.756221 -14217.405971 -15605.794972     81.365719
PR02  10744.067947 -23086.237600    800.467420    -22.666421
PR03    395.702814 -19275.792401  16724.083786     97.484768
PR04  -9498.795181  -5019.921517  23170.768566    230.239589
PR05 -14639.245615  11877.568725  17212.580851    129.358301
PR07     36.874111  18820.888535 -17195.202202     79.315008
PR08   9711.004415   4764.817471 -23034.444170    -74.942087
PR09   -481.801363  15887.672471 -19906.610914    178.760428
PR11  17161.674121  16334.361839   9436.948271     29.256316
PR12  12758.505097   -287.816728  22109.022007     38.519958
PR13   2359.878590 -14079.017825  21121.263210    -45.887130
PR14 -11651.698582 -21744.184908   6537.345978     26.309612
PR15 -17190.793387 -15449.389844 -10783.993600     80.844209
PR16 -12785.898355    -19.708526 -22072.644822     24.480729
PR17  -7627.243581  -9650.873979 -22335.759503     74.401848
PR18 -21871.505077  -4212.708067 -12473.041835    135.139085
PR19 -25357.060669   1828.771693   2107.557211   -271.605320
PR20 -12982.244690   9305.839218  19909.682891   -110.684839
PR21   7649.291334   9617.266225  22352.473682    -89.454465
PR22  22324.300780   4570.829147  11469.177976    115.230410
PR24  11959.977706 -10352.077142 -20000.594304    -50.195251
PR25   7507.272232  10213.100509  22141.482239    -26.550909
PR26   9233.882539   5778.090975 -23038.243803    -27.076484
EOF
